     2.100          NAVIGATION                              RINEX VERSION / TYPE
fic2rin                                 07/28/2014 00:14:42 PGM / RUN BY / DATE
                                                            END OF HEADER
17 14  7 27 19 59 44.0 -.112134963274D-03 -.284217094304D-11  .000000000000D+00
     .700000000000D+01 -.117312500000D+03  .446554315065D-08 -.294307718499D+01
    -.597909092903D-05  .935705006123D-02  .576488673687D-05  .515362876892D+04
     .719840000000D+05  .152736902237D-06  .245261702854D+01 -.149011611938D-06
     .969458550160D+00  .270468750000D+03 -.209724286798D+01 -.802211986778D-08
    -.339299847486D-09  .100000000000D+01  .180300000000D+04  .000000000000D+00
     .240000000000D+01  .000000000000D+00 -.102445483208D-07  .700000000000D+01
     .648060000000D+05  .400000000000D+01
20 14  7 27 19 59 44.0  .215367414057D-03  .420641299570D-11  .000000000000D+00
     .210000000000D+02  .344687500000D+02  .573559605345D-08 -.891726425814D+00
     .176578760147D-05  .579338858370D-02  .502169132233D-05  .515375020218D+04
     .719840000000D+05 -.558793544769D-07 -.184384786506D+01  .102445483208D-06
     .926297592379D+00  .262937500000D+03  .132700628515D+01 -.874107838671D-08
     .228223792151D-09  .100000000000D+01  .180300000000D+04  .000000000000D+00
     .240000000000D+01  .000000000000D+00 -.838190317154D-08  .210000000000D+02
     .648060000000D+05  .400000000000D+01
28 14  7 27 19 59 44.0  .372793059796D-03  .284217094304D-11  .000000000000D+00
     .200000000000D+02  .518750000000D+02  .416588781166D-08 -.213867938182D+01
     .289641320705D-05  .191910446156D-01  .159442424774D-05  .515367434692D+04
     .719840000000D+05  .268220901489D-06  .142684060008D+01  .875443220139D-07
     .986838303674D+00  .356093750000D+03 -.171096554168D+01 -.789247161027D-08
     .392516349881D-09  .100000000000D+01  .180300000000D+04  .000000000000D+00
     .240000000000D+01  .000000000000D+00 -.107102096081D-07  .200000000000D+02
     .648060000000D+05  .400000000000D+01
 1 14  7 27 20  0  0.0  .185160897672D-04  .795807864051D-12  .000000000000D+00
     .690000000000D+02 -.204062500000D+02  .437018203562D-08  .114766868217D+01
    -.882893800735D-06  .332852941938D-02  .115800648928D-04  .515368437576D+04
     .720000000000D+05  .279396772385D-07 -.282152884430D+01  .484287738800D-07
     .961485999191D+00  .153968750000D+03  .351921676825D+00 -.788211403597D-08
     .183936233111D-09  .100000000000D+01  .180300000000D+04  .000000000000D+00
     .240000000000D+01  .000000000000D+00  .558793544769D-08  .690000000000D+02
     .648060000000D+05  .400000000000D+01
 2 14  7 27 20  0  0.0  .509187579155D-03  .216004991671D-11  .000000000000D+00
     .480000000000D+02 -.468750000000D+02  .471519640686D-08  .180620031197D+01
    -.238791108131D-05  .136446083197D-01  .120736658573D-04  .515365710640D+04
     .720000000000D+05 -.361353158951D-06 -.285247139032D+01  .149011611938D-07
     .940046975701D+00  .140406250000D+03 -.240244902817D+01 -.807640784338D-08
     .176078762959D-09  .100000000000D+01  .180300000000D+04  .000000000000D+00
     .240000000000D+01  .000000000000D+00 -.204890966415D-07  .480000000000D+02
     .648060000000D+05  .400000000000D+01
 3 14  7 27 20  0  0.0  .396252144128D-03  .511590769747D-11  .000000000000D+00
     .210000000000D+02 -.101906250000D+03  .520164524083D-08  .184145104787D+01
    -.561401247978D-05  .173021674855D-01  .352971255779D-05  .515381896591D+04
     .720000000000D+05  .651925802231D-07  .225584893220D+01 -.419095158577D-06
     .939072708833D+00  .301406250000D+03  .140687619802D+01 -.840963600938D-08
    -.236795577772D-09  .100000000000D+01  .180300000000D+04  .000000000000D+00
     .240000000000D+01  .000000000000D+00 -.465661287308D-08  .210000000000D+02
     .648060000000D+05  .400000000000D+01
 4 14  7 27 20  0  0.0  .726198777556D-05 -.113686837722D-12  .000000000000D+00
     .114000000000D+03 -.235000000000D+02  .491556189574D-08 -.516364513546D+00
    -.116974115372D-05  .108367865905D-01  .114571303129D-04  .515197647285D+04
     .720000000000D+05 -.875443220139D-07 -.283659472954D+01  .132247805595D-06
     .939050342279D+00  .145750000000D+03  .105552844297D+01 -.831106047474D-08
     .189650756858D-09  .100000000000D+01  .180300000000D+04  .000000000000D+00
     .240000000000D+01  .000000000000D+00 -.651925802231D-08  .114000000000D+03
     .648060000000D+05  .400000000000D+01
 5 14  7 27 20  0  0.0 -.354508869350D-03  .329691829393D-11  .000000000000D+00
     .190000000000D+02  .282187500000D+02  .516200073234D-08 -.208512846531D+01
     .148825347424D-05  .367167347576D-02  .541284680367D-05  .515363701820D+04
     .720000000000D+05 -.558793544769D-08 -.178421041059D+01 -.316649675369D-07
     .946662706724D+00  .268812500000D+03  .301056478954D+00 -.831070331701D-08
     .299655338991D-09  .100000000000D+01  .180300000000D+04  .000000000000D+00
     .240000000000D+01  .000000000000D+00 -.102445483208D-07  .190000000000D+02
     .648060000000D+05  .400000000000D+01
 6 14  7 27 20  0  0.0 -.187475234270D-05 -.193267624127D-11  .000000000000D+00
     .710000000000D+02 -.320312500000D+02  .426624913497D-08 -.225448017046D+01
    -.171549618244D-05  .405198661610D-03  .120252370834D-04  .515357713509D+04
     .720000000000D+05  .186264514923D-08 -.283009444470D+01  .242143869400D-07
     .961420012808D+00  .146906250000D+03  .218847219637D+01 -.775925177541D-08
     .198579700213D-09  .100000000000D+01  .180300000000D+04  .000000000000D+00
     .240000000000D+01  .000000000000D+00  .605359673500D-08  .710000000000D+02
     .648060000000D+05  .400000000000D+01
 7 14  7 27 20  0  0.0  .373493880033D-03  .432009983342D-11  .000000000000D+00
     .750000000000D+02  .871562500000D+02  .388909056766D-08  .558955094198D+00
     .459514558315D-05  .771464162972D-02  .107530504465D-04  .515362474823D+04
     .720000000000D+05  .633299350739D-07  .338665276414D+00  .189989805222D-06
     .973333752858D+00  .179343750000D+03 -.281889198274D+01 -.773889378456D-08
     .850035407387D-10  .100000000000D+01  .180300000000D+04  .000000000000D+00
     .240000000000D+01  .000000000000D+00 -.107102096081D-07  .750000000000D+02
     .648060000000D+05  .400000000000D+01
 8 14  7 27 20  0  0.0  .149440020323D-04  .227373675443D-12  .000000000000D+00
     .970000000000D+02  .950937500000D+02  .345871549795D-08  .190156806737D+00
     .506639480591D-05  .140370099107D-01  .102352350950D-04  .515335147476D+04
     .720000000000D+05  .189989805222D-06  .439407577786D+00  .189989805222D-06
     .996646926551D+00  .202031250000D+03 -.276077793655D+01 -.767424823467D-08
     .211437378644D-09  .100000000000D+01  .180300000000D+04  .000000000000D+00
     .340000000000D+01  .000000000000D+00 -.419095158577D-08  .970000000000D+02
     .648060000000D+05  .400000000000D+01
10 14  7 27 20  0  0.0 -.135446432978D-03 -.159161572810D-11  .000000000000D+00
     .800000000000D+02  .275000000000D+02  .519378777068D-08 -.191513463128D+01
     .144541263580D-05  .136752037797D-01  .486336648464D-05  .515359760666D+04
     .720000000000D+05  .167638063431D-06 -.176729443136D+01 -.167638063431D-06
     .941453869870D+00  .274437500000D+03  .870748021099D+00 -.819426989566D-08
     .322513433979D-09  .100000000000D+01  .180300000000D+04  .000000000000D+00
     .340000000000D+01  .000000000000D+00 -.279396772385D-08  .800000000000D+02
     .648060000000D+05  .400000000000D+01
11 14  7 27 20  0  0.0 -.508667901158D-03 -.306954461848D-11  .000000000000D+00
     .360000000000D+02 -.639062500000D+02  .612239787959D-08  .699176206101D+00
    -.320374965668D-05  .152534779627D-01  .109635293484D-04  .515371199226D+04
     .720000000000D+05 -.195577740669D-06  .313335076916D+01  .465661287308D-07
     .891441374763D+00  .135937500000D+03  .130745515159D+01 -.895644450044D-08
    -.835749098019D-10  .100000000000D+01  .180300000000D+04  .000000000000D+00
     .240000000000D+01  .000000000000D+00 -.121071934700D-07  .360000000000D+02
     .648060000000D+05  .400000000000D+01
12 14  7 27 20  0  0.0  .220937188715D-03  .261479726760D-11  .000000000000D+00
     .730000000000D+02  .584375000000D+02  .432910889619D-08  .857767284193D-01
     .312179327011D-05  .510582269635D-02  .293925404549D-05  .515357589722D+04
     .720000000000D+05  .316649675369D-07  .140253874393D+01  .521540641785D-07
     .987710853847D+00  .341812500000D+03  .490124444542D+00 -.821034199370D-08
     .317156067966D-09  .100000000000D+01  .180300000000D+04  .000000000000D+00
     .240000000000D+01  .000000000000D+00 -.121071934700D-07  .730000000000D+02
     .648060000000D+05  .400000000000D+01
13 14  7 27 20  0  0.0 -.249324366450D-04 -.386535248253D-11  .000000000000D+00
     .620000000000D+02 -.255312500000D+02  .405588322953D-08  .286501668674D+01
    -.123865902424D-05  .532337976620D-02  .883452594280D-05  .515355754852D+04
     .720000000000D+05  .167638063431D-07 -.624738826354D+00  .521540641785D-07
     .976988698609D+00  .218500000000D+03  .232255995693D+01 -.764210403859D-08
    -.593596154234D-09  .100000000000D+01  .180300000000D+04  .000000000000D+00
     .240000000000D+01  .000000000000D+00 -.111758708954D-07  .620000000000D+02
     .648060000000D+05  .400000000000D+01
14 14  7 27 20  0  0.0  .150421168655D-03 -.363797880709D-11  .000000000000D+00
     .500000000000D+02 -.403125000000D+02  .417660254369D-08 -.305074751675D+01
    -.199303030968D-05  .779310031794D-02  .827945768833D-05  .515369128799D+04
     .720000000000D+05  .223517417908D-07 -.657024938286D+00 -.614672899246D-07
     .969504180038D+00  .222718750000D+03 -.199620077812D+01 -.770639243075D-08
    -.477162732886D-09  .100000000000D+01  .180300000000D+04  .000000000000D+00
     .240000000000D+01  .000000000000D+00 -.931322574615D-08  .500000000000D+02
     .648060000000D+05  .400000000000D+01
